start=new Date('2022-11-26T00:00:00.000Z').valueOf();
sats=[{"GP_ID":"218822983","DECAY_DATE":null,"ECCENTRICITY":"0.00016810","PERIAPSIS":"538.613","NORAD_CAT_ID":"53567","INCLINATION":"53.2161","MEAN_ANOMALY":"228.0564","MEAN_MOTION":"15.08830025","TLE_LINE2":"2 53567  53.2161  39.8307 0001681  48.1696 228.0564 15.08830025  1309","TLE_LINE1":"1 53567U 22101AS  22330.00001157  .00029202  00000-0  18458-2 0  9999","ELEMENT_SET_NO":"999","COUNTRY_CODE":"US","RA_OF_ASC_NODE":"39.8307","BSTAR":"0.00184580000000","MEAN_ELEMENT_THEORY":"SGP4","FILE":"3670141","SEMIMAJOR_AXIS":"6917.911","APOAPSIS":"540.939","CENTER_NAME":"EARTH","CLASSIFICATION_TYPE":"U","ARG_OF_PERICENTER":"48.1696","OBJECT_ID":"2022-101AS","SITE":"AFETR","EPHEMERIS_TYPE":"0","EPOCH":"2022-11-26T00:00:00.999648","OBJECT_TYPE":"PAYLOAD","MEAN_MOTION_DOT":"0.00029202","LAUNCH_DATE":"2022-08-19","PERIOD":"95.438","MEAN_MOTION_DDOT":"0.0000000000000","OBJECT_NAME":"STARLINK-4585","REF_FRAME":"TEME","RCS_SIZE":"LARGE","REV_AT_EPOCH":"130","TIME_SYSTEM":"UTC"},{"APOAPSIS":"540.861","SEMIMAJOR_AXIS":"6917.900","COUNTRY_CODE":"US","TLE_LINE2":"2 53568  53.2148  39.5996 0001584  54.4797 341.8958 15.08833459  1305","TLE_LINE1":"1 53568U 22101AT  22330.00001157  .00013586  00000-0  87021-3 0  9991","ELEMENT_SET_NO":"999","MEAN_ELEMENT_THEORY":"SGP4","FILE":"3670141","BSTAR":"0.00087021000000","RA_OF_ASC_NODE":"39.5996","MEAN_ANOMALY":"341.8958","INCLINATION":"53.2148","NORAD_CAT_ID":"53568","MEAN_MOTION":"15.08833459","GP_ID":"218823519","DECAY_DATE":null,"PERIAPSIS":"538.670","ECCENTRICITY":"0.00015840","RCS_SIZE":"LARGE","TIME_SYSTEM":"UTC","REV_AT_EPOCH":"130","PERIOD":"95.438","MEAN_MOTION_DOT":"0.00013586","LAUNCH_DATE":"2022-08-19","REF_FRAME":"TEME","OBJECT_NAME":"STARLINK-4583","MEAN_MOTION_DDOT":"0.0000000000000","OBJECT_ID":"2022-101AT","SITE":"AFETR","EPHEMERIS_TYPE":"0","CLASSIFICATION_TYPE":"U","ARG_OF_PERICENTER":"54.4797","EPOCH":"2022-11-26T00:00:00.999648","OBJECT_TYPE":"PAYLOAD","CENTER_NAME":"EARTH"},{"PERIAPSIS":"538.507","ECCENTRICITY":"0.00017940","DECAY_DATE":null,"GP_ID":"218823685","MEAN_MOTION":"15.08839252","MEAN_ANOMALY":"266.7505","INCLINATION":"53.2152","NORAD_CAT_ID":"53569","FILE":"3670141","MEAN_ELEMENT_THEORY":"SGP4","RA_OF_ASC_NODE":"39.7559","BSTAR":"-0.00013759000000","COUNTRY_CODE":"US","TLE_LINE2":"2 53569  53.2152  39.7559 0001794  49.5331 266.7505 15.08839252  1300","ELEMENT_SET_NO":"999","TLE_LINE1":"1 53569U 22101AU  22330.00001157 -.00002477  00000-0 -13759-3 0  9998","APOAPSIS":"540.989","SEMIMAJOR_AXIS":"6917.883","CENTER_NAME":"EARTH","OBJECT_TYPE":"PAYLOAD","EPOCH":"2022-11-26T00:00:00.999648","SITE":"AFETR","EPHEMERIS_TYPE":"0","OBJECT_ID":"2022-101AU","ARG_OF_PERICENTER":"49.5331","CLASSIFICATION_TYPE":"U","REF_FRAME":"TEME","MEAN_MOTION_DDOT":"0.0000000000000","OBJECT_NAME":"STARLINK-4582","PERIOD":"95.438","LAUNCH_DATE":"2022-08-19","MEAN_MOTION_DOT":"-0.00002477","TIME_SYSTEM":"UTC","REV_AT_EPOCH":"130","RCS_SIZE":"LARGE"},{"DECAY_DATE":null,"GP_ID":"218823175","PERIAPSIS":"538.642","ECCENTRICITY":"0.00015820","MEAN_ANOMALY":"323.6434","INCLINATION":"53.2148","NORAD_CAT_ID":"53570","MEAN_MOTION":"15.08843096","COUNTRY_CODE":"US","TLE_LINE2":"2 53570  53.2148  39.6400 0001582  52.7059 323.6434 15.08843096  1304","TLE_LINE1":"1 53570U 22101AV  22330.00001157 -.00003511  00000-0 -20256-3 0  9990","ELEMENT_SET_NO":"999","MEAN_ELEMENT_THEORY":"SGP4","FILE":"3670141","BSTAR":"-0.00020256000000","RA_OF_ASC_NODE":"39.6400","APOAPSIS":"540.830","SEMIMAJOR_AXIS":"6917.871","CENTER_NAME":"EARTH","SITE":"AFETR","EPHEMERIS_TYPE":"0","OBJECT_ID":"2022-101AV","ARG_OF_PERICENTER":"52.7059","CLASSIFICATION_TYPE":"U","OBJECT_TYPE":"PAYLOAD","EPOCH":"2022-11-26T00:00:00.999648","PERIOD":"95.437","LAUNCH_DATE":"2022-08-19","MEAN_MOTION_DOT":"-0.00003511","REF_FRAME":"TEME","OBJECT_NAME":"STARLINK-4550","MEAN_MOTION_DDOT":"0.0000000000000","RCS_SIZE":"LARGE","TIME_SYSTEM":"UTC","REV_AT_EPOCH":"130"},{"CLASSIFICATION_TYPE":"U","ARG_OF_PERICENTER":"62.4105","OBJECT_ID":"2022-101AW","SITE":"AFETR","EPHEMERIS_TYPE":"0","EPOCH":"2022-11-26T00:00:00.999648","OBJECT_TYPE":"PAYLOAD","CENTER_NAME":"EARTH","RCS_SIZE":"LARGE","REV_AT_EPOCH":"130","TIME_SYSTEM":"UTC","MEAN_MOTION_DOT":"0.00039145","LAUNCH_DATE":"2022-08-19","PERIOD":"95.438","MEAN_MOTION_DDOT":"0.0000000000000","OBJECT_NAME":"STARLINK-4584","REF_FRAME":"TEME","INCLINATION":"53.2144","NORAD_CAT_ID":"53571","MEAN_ANOMALY":"293.8895","MEAN_MOTION":"15.08838615","GP_ID":"218823351","DECAY_DATE":null,"ECCENTRICITY":"0.00013920","PERIAPSIS":"538.787","SEMIMAJOR_AXIS":"6917.885","APOAPSIS":"540.713","TLE_LINE1":"1 53571U 22101AW  22330.00001157  .00039145  00000-0  24641-2 0  9992","TLE_LINE2":"2 53571  53.2144  39.6781 0001392  62.4105 293.8895 15.08838615  1302","ELEMENT_SET_NO":"999","COUNTRY_CODE":"US","BSTAR":"0.00246410000000","RA_OF_ASC_NODE":"39.6781","FILE":"3670141","MEAN_ELEMENT_THEORY":"SGP4"},{"ECCENTRICITY":"0.00007420","PERIAPSIS":"539.207","DECAY_DATE":null,"GP_ID":"218823853","MEAN_MOTION":"15.08848078","NORAD_CAT_ID":"53572","INCLINATION":"53.2172","MEAN_ANOMALY":"341.6538","BSTAR":"0.00225720000000","RA_OF_ASC_NODE":"39.4962","FILE":"3670141","MEAN_ELEMENT_THEORY":"SGP4","ELEMENT_SET_NO":"999","TLE_LINE2":"2 53572  53.2172  39.4962 0000742 109.4951 341.6538 15.08848078  1302","TLE_LINE1":"1 53572U 22101AX  22330.00001157  .00035826  00000-0  22572-2 0  9996","COUNTRY_CODE":"US","SEMIMAJOR_AXIS":"6917.856","APOAPSIS":"540.234","CENTER_NAME":"EARTH","OBJECT_TYPE":"PAYLOAD","EPOCH":"2022-11-26T00:00:00.999648","ARG_OF_PERICENTER":"109.4951","CLASSIFICATION_TYPE":"U","SITE":"AFETR","EPHEMERIS_TYPE":"0","OBJECT_ID":"2022-101AX","OBJECT_NAME":"STARLINK-4555","MEAN_MOTION_DDOT":"0.0000000000000","REF_FRAME":"TEME","MEAN_MOTION_DOT":"0.00035826","LAUNCH_DATE":"2022-08-19","PERIOD":"95.437","REV_AT_EPOCH":"130","TIME_SYSTEM":"UTC","RCS_SIZE":"LARGE"},{"CENTER_NAME":"EARTH","EPOCH":"2022-11-26T00:00:00.999648","OBJECT_TYPE":"PAYLOAD","CLASSIFICATION_TYPE":"U","ARG_OF_PERICENTER":"52.0456","OBJECT_ID":"2022-101AY","SITE":"AFETR","EPHEMERIS_TYPE":"0","MEAN_MOTION_DDOT":"0.0000000000000","OBJECT_NAME":"STARLINK-4547","REF_FRAME":"TEME","LAUNCH_DATE":"2022-08-19","MEAN_MOTION_DOT":"0.00005601","PERIOD":"95.436","REV_AT_EPOCH":"130","TIME_SYSTEM":"UTC","RCS_SIZE":"LARGE","ECCENTRICITY":"0.00013760","PERIAPSIS":"538.742","GP_ID":"218824019","DECAY_DATE":null,"MEAN_MOTION":"15.08856761","NORAD_CAT_ID":"53573","INCLINATION":"53.2158","MEAN_ANOMALY":"4.2884","BSTAR":"0.00036955000000","RA_OF_ASC_NODE":"39.5617","MEAN_ELEMENT_THEORY":"SGP4","FILE":"3670141","TLE_LINE2":"2 53573  53.2158  39.5617 0001376  52.0456   4.2884 15.08856761  1306","ELEMENT_SET_NO":"999","TLE_LINE1":"1 53573U 22101AY  22330.00001157  .00005601  00000-0  36955-3 0  9996","COUNTRY_CODE":"US","SEMIMAJOR_AXIS":"6917.829","APOAPSIS":"540.646"},{"COUNTRY_CODE":"US","TLE_LINE2":"2 53574  53.2179  39.4474 0001521  48.3230  68.1269 15.08838591  1307","TLE_LINE1":"1 53574U 22101AZ  22330.00001157  .00035820  00000-0  22574-2 0  9994","ELEMENT_SET_NO":"999","MEAN_ELEMENT_THEORY":"SGP4","FILE":"3670141","BSTAR":"0.00225740000000","RA_OF_ASC_NODE":"39.4474","APOAPSIS":"540.802","SEMIMAJOR_AXIS":"6917.885","GP_ID":"218822809","DECAY_DATE":null,"PERIAPSIS":"538.697","ECCENTRICITY":"0.00015210","MEAN_ANOMALY":"68.1269","NORAD_CAT_ID":"53574","INCLINATION":"53.2179","MEAN_MOTION":"15.08838591","PERIOD":"95.438","LAUNCH_DATE":"2022-08-19","MEAN_MOTION_DOT":"0.00035820","REF_FRAME":"TEME","OBJECT_NAME":"STARLINK-4559","MEAN_MOTION_DDOT":"0.0000000000000","RCS_SIZE":"LARGE","TIME_SYSTEM":"UTC","REV_AT_EPOCH":"130","CENTER_NAME":"EARTH","OBJECT_ID":"2022-101AZ","EPHEMERIS_TYPE":"0","SITE":"AFETR","CLASSIFICATION_TYPE":"U","ARG_OF_PERICENTER":"48.3230","EPOCH":"2022-11-26T00:00:00.999648","OBJECT_TYPE":"PAYLOAD"},{"COUNTRY_CODE":"US","ELEMENT_SET_NO":"999","TLE_LINE2":"2 53575  53.2164  39.5228 0001537  54.9611  21.4547 15.08853908  1303","TLE_LINE1":"1 53575U 22101BA  22330.00001157 -.00007124  00000-0 -42975-3 0  9991","FILE":"3670141","MEAN_ELEMENT_THEORY":"SGP4","BSTAR":"-0.00042975000000","RA_OF_ASC_NODE":"39.5228","APOAPSIS":"540.766","SEMIMAJOR_AXIS":"6917.838","DECAY_DATE":null,"GP_ID":"218822984","PERIAPSIS":"538.640","ECCENTRICITY":"0.00015370","MEAN_ANOMALY":"21.4547","NORAD_CAT_ID":"53575","INCLINATION":"53.2164","MEAN_MOTION":"15.08853908","PERIOD":"95.437","LAUNCH_DATE":"2022-08-19","MEAN_MOTION_DOT":"-0.00007124","REF_FRAME":"TEME","MEAN_MOTION_DDOT":"0.0000000000000","OBJECT_NAME":"STARLINK-4551","RCS_SIZE":"LARGE","TIME_SYSTEM":"UTC","REV_AT_EPOCH":"130","CENTER_NAME":"EARTH","SITE":"AFETR","EPHEMERIS_TYPE":"0","OBJECT_ID":"2022-101BA","ARG_OF_PERICENTER":"54.9611","CLASSIFICATION_TYPE":"U","OBJECT_TYPE":"PAYLOAD","EPOCH":"2022-11-26T00:00:00.999648"},{"OBJECT_ID":"2022-101BB","SITE":"AFETR","EPHEMERIS_TYPE":"0","CLASSIFICATION_TYPE":"U","ARG_OF_PERICENTER":"39.3143","EPOCH":"2022-11-26T00:00:00.999648","OBJECT_TYPE":"PAYLOAD","CENTER_NAME":"EARTH","RCS_SIZE":"LARGE","TIME_SYSTEM":"UTC","REV_AT_EPOCH":"130","PERIOD":"95.438","MEAN_MOTION_DOT":"0.00036037","LAUNCH_DATE":"2022-08-19","REF_FRAME":"TEME","OBJECT_NAME":"STARLINK-4581","MEAN_MOTION_DDOT":"0.0000000000000","MEAN_ANOMALY":"97.1771","NORAD_CAT_ID":"53576","INCLINATION":"53.2194","MEAN_MOTION":"15.08835148","GP_ID":"218823520","DECAY_DATE":null,"PERIAPSIS":"538.491","ECCENTRICITY":"0.00018350","APOAPSIS":"541.030","SEMIMAJOR_AXIS":"6917.895","COUNTRY_CODE":"US","ELEMENT_SET_NO":"999","TLE_LINE2":"2 53576  53.2194  39.4117 0001835  39.3143  97.1771 15.08835148  1306","TLE_LINE1":"1 53576U 22101BB  22330.00001157  .00036037  00000-0  22711-2 0  9990","FILE":"3670141","MEAN_ELEMENT_THEORY":"SGP4","BSTAR":"0.00227110000000","RA_OF_ASC_NODE":"39.4117"}];
